#aV2023  6 28  0  0  0.00000000     288 DD+AD WGS84 FIT  NGA
## 2268 259200.00000000   300.00000000 60123 0.0000000000000
+   32     1  2  3  4  5  6  7  8  9 10 11 12 13 14 15 16 17
+         18 19 20 21 22 23 24 25 26 27 28 29 30 31 32  0  0
+          0  0  0  0  0  0  0  0  0  0  0  0  0  0  0  0  0
+          0  0  0  0  0  0  0  0  0  0  0  0  0  0  0  0  0
+          0  0  0  0  0  0  0  0  0  0  0  0  0  0  0  0  0
++         2  2  2  2  2  2  2  2  2  2  2  2  2  2  2  2  2
++         2  2  2  2  2  2  2  2  2  2  2  2  2  2  2  0  0
++         0  0  0  0  0  0  0  0  0  0  0  0  0  0  0  0  0
++         0  0  0  0  0  0  0  0  0  0  0  0  0  0  0  0  0
++         0  0  0  0  0  0  0  0  0  0  0  0  0  0  0  0  0
%c cc cc ccc ccc cccc cccc cccc cccc ccccc ccccc ccccc ccccc
%c cc cc ccc ccc cccc cccc cccc cccc ccccc ccccc ccccc ccccc
%f  0.0000000  0.000000000  0.00000000000  0.000000000000000
%f  0.0000000  0.000000000  0.00000000000  0.000000000000000
%i    0    0    0    0      0      0      0      0         0
%i    0    0    0    0      0      0      0      0         0
/*      NGA, ST. LOUIS,MO.                                  
/*   EPHEMERIS COMPUTED FROM 2 DAYS OF DATA                 
/*   EPOCHA v8 SMOOTHER                                     
/*   G2139 IERS2010 SATIGS SATAPC                           
*  2023  6 28 11 45  0.00000000
P  1  13496.280587 -16746.828105  15004.408880    175.738291                    
V  1  -2298.770534  19690.721728  23847.379259     -0.021289                    
P  2  14713.925976 -11099.979778  19573.136501   -581.487593                    
V  2  -1281.718758  23810.254928  14997.833880      0.037105                    
P  3  21847.843908 -13039.219368  -7540.950814   -253.860390                    
V  3   9583.420707  -1084.397009  30306.530776      0.144698                    
P  4  12431.356562  -9042.154833 -21656.301172     80.666568                    
V  4  20090.986000  18794.227903   3570.827958      0.105754                    
P  5 -24968.145269   3680.649260  -8638.686377   -132.832569                    
V  5   9039.902506  -6134.827036 -29239.166438     -0.014428                    
P  6  -6389.011537 -20475.115408 -15543.961901    582.285798                    
V  6   5243.238525 -19173.271733  23105.442536     -0.026596                    
P  7   5724.208305 -25607.903902  -1214.527673    140.147494                    
V  7   3147.151433   2754.172906 -31782.693586     -0.104445                    
P  8  20559.653254   1359.631238  16900.898784   -129.541406                    
V  8  15668.642537  14746.434569 -19771.340667     -0.018665                    
P  9   2543.445184 -16677.900011 -20576.908404   -125.170662                    
V  9  20728.505059  15706.394887 -10246.019088      0.090670                    
P 10   6071.452055  13632.749353  22156.834354    -42.998691                    
V 10 -26067.918006   9184.162921   1199.324019     -0.015526                    
P 11 -14025.980982  -6023.398805 -21732.358730   -253.638620                    
V 11   6656.688300 -26777.841040   3081.241940     -0.155409                    
P 12 -24106.390409  10084.336474  -4782.459810   -394.132969                    
V 12  -6234.869676  -1025.048551  31137.458401     -0.046647                    
P 13 -20869.575109 -10463.349423  12680.696025    540.036400                    
V 13  -9327.257786 -13509.153748 -25919.602820      0.050789                    
P 14  -2331.653341 -15433.721700  21496.006235    105.161184                    
V 14  26136.919309  -7935.577827  -3020.901118      0.122426                    
P 15 -20394.463833   1625.723839  16607.707927     53.017887                    
V 15 -17315.946922 -13699.745965 -19129.079363      0.035435                    
P 16  24149.455488   2145.978744 -11661.540166   -486.767526                    
V 16 -13265.942711   5326.867407 -26765.875887      0.041201                    
P 17 -11477.453336 -21464.783031  10927.299783    719.676606                    
V 17  10953.077777   7742.452206  27911.154500      0.010360                    
P 18  -4521.755270  26053.632590   1217.790043   -325.110589                    
V 18  -2805.170366   1008.619626 -32098.293339     -0.146460                    
P 19 -16809.353050 -20568.867377   2782.382485    336.639454                    
V 19   4160.678020   1251.780880  31557.262166      0.051387                    
P 20 -20445.124456  -2280.065861 -16659.906172    425.577679                    
V 20  17594.202745 -12248.070827 -20059.332023     -0.020400                    
P 21  15302.487896  -7135.470552  20825.747743    152.707756                    
V 21  -1255.029147  25461.553601  10770.526849     -0.003493                    
P 22  18401.239237  19269.673225    667.758858    504.784929                    
V 22  -2077.462583   1630.321085  31682.579289      0.057799                    
P 23  -7698.200213  16799.051713  19021.078386     37.623952                    
V 23 -23004.060173   7499.327998 -16090.625827      0.038805                    
P 24 -14397.297129  12855.325938  17702.832267   -240.094218                    
V 24    -91.069651 -23566.424864  17119.256613     -0.127290                    
P 25 -14857.810477  16538.206308 -14644.678093    452.726673                    
V 25 -17881.631976   4056.456176  23481.700544      0.024601                    
P 26  16371.336161   8508.364738 -19337.205545    237.961652                    
V 26 -21751.787070  10911.402955 -13353.505559     -0.009570                    
P 27  22524.887842  11857.222181   8031.714013      7.595472                    
V 27   6549.195153   8394.317468 -29420.346272     -0.074464                    
P 28   6465.935521  21765.095060 -13805.132611     83.612063                    
V 28  -4754.507781  16974.142146  24566.757545     -0.001596                    
P 29  -5419.700474  14949.062039 -21311.957221   -604.125186                    
V 29 -19497.182954 -18553.753654  -8169.702712     -0.010548                    
P 30  -1110.809851 -25193.596397   8007.433361   -508.044431                    
V 30   5432.058930  -9256.227397 -29057.377161      0.026053                    
P 31  12496.727115  11395.804923 -20551.781744   -219.048043                    
V 31  -6448.254634  25046.474695  10472.674370     -0.007225                    
P 32  14801.744025  20449.238270   8757.927193   -509.966235                    
V 32  -9832.601567  -5106.327593  28952.864868     -0.080833                    
EOF
